[Satellite]
VERSION=1.1
NAME=IRIDIUM 5 [-]
NICKNAME=IRIDIUM 5 [-]
TLE1=1 24795U 97020D   20157.66908127  .00000299  00000-0  29371-4 0  9995
TLE2=2 24795  86.4000 195.9858 0140031 149.0887 211.8675 14.80268854212942
STATUS=2
